[{"OBJECT_NAME":"KUIPER-00074","OBJECT_ID":"2025-151F","EPOCH":"2026-03-09T22:00:01.999584","MEAN_MOTION":15.11764307,"ECCENTRICITY":0.0001586,"INCLINATION":51.9043,"RA_OF_ASC_NODE":288.1826,"ARG_OF_PERICENTER":324.5394,"MEAN_ANOMALY":98.5677,"EPHEMERIS_TYPE":0,"CLASSIFICATION_TYPE":"U","NORAD_CAT_ID":64821,"ELEMENT_SET_NO":999,"REV_AT_EPOCH":449,"BSTAR":0.13371806,"MEAN_MOTION_DOT":0.02545787,"MEAN_MOTION_DDOT":0},{"OBJECT_NAME":"STARLINK-36856","OBJECT_ID":"2026-035E","EPOCH":"2026-03-09T22:00:01.999584","MEAN_MOTION":15.87108226,"ECCENTRICITY":0.00010775,"INCLINATION":97.2727,"RA_OF_ASC_NODE":1.2609,"ARG_OF_PERICENTER":86.5164,"MEAN_ANOMALY":326.6387,"EPHEMERIS_TYPE":0,"CLASSIFICATION_TYPE":"U","NORAD_CAT_ID":67883,"ELEMENT_SET_NO":999,"REV_AT_EPOCH":379,"BSTAR":-0.0052706142,"MEAN_MOTION_DOT":-0.01211483,"MEAN_MOTION_DDOT":0}]
